[ {"CCSDS_OMM_VERS": "3.0", "COMMENT": "GENERATED VIA SPACE-TRACK.ORG API", "CREATION_DATE": "2020-03-05T19:37:34", "ORIGINATOR": "18 SPCS", "OBJECT_NAME": "OPS-SAT", "OBJECT_ID": "2019-092F", "CENTER_NAME": "EARTH", "REF_FRAME": "TEME", "TIME_SYSTEM": "UTC", "MEAN_ELEMENT_THEORY": "SGP4", "EPOCH": "2020-03-05T00:56:51.808992", "MEAN_MOTION": "15.15287205", "ECCENTRICITY": "0.00134140", "INCLINATION": "97.4651", "RA_OF_ASC_NODE": "250.1054", "ARG_OF_PERICENTER": "4.5154", "MEAN_ANOMALY": "355.6229", "EPHEMERIS_TYPE": "0", "CLASSIFICATION_TYPE": "U", "NORAD_CAT_ID": "44878", "ELEMENT_SET_NO": "999", "REV_AT_EPOCH": "1172", "BSTAR": "0.00000000000000", "MEAN_MOTION_DOT": "-0.00000066", "MEAN_MOTION_DDOT": "0.0000000000000", "SEMIMAJOR_AXIS": "6898.243", "PERIOD": "95.031", "APOAPSIS": "529.362", "PERIAPSIS": "510.855", "OBJECT_TYPE": "PAYLOAD", "RCS_SIZE": "SMALL", "COUNTRY_CODE": "ESA", "LAUNCH_DATE": "2019-12-18", "SITE": "FRGUI", "DECAY_DATE": null, "FILE": "2713693", "GP_ID": "150051370", "TLE_LINE0": "0 OPS-SAT", "TLE_LINE1": "1 44878U 19092F   20065.03948853 -.00000066 +00000-0 +00000-0 0  9998", "TLE_LINE2": "2 44878 097.4651 250.1054 0013414 004.5154 355.6229 15.15287205011723"}, {"CCSDS_OMM_VERS": "3.0", "COMMENT": "GENERATED VIA SPACE-TRACK.ORG API", "CREATION_DATE": "2020-03-05T12:16:14", "ORIGINATOR": "18 SPCS", "OBJECT_NAME": "OPS-SAT", "OBJECT_ID": "2019-092F", "CENTER_NAME": "EARTH", "REF_FRAME": "TEME", "TIME_SYSTEM": "UTC", "MEAN_ELEMENT_THEORY": "SGP4", "EPOCH": "2020-03-05T10:27:24.784992", "MEAN_MOTION": "15.15287938", "ECCENTRICITY": "0.00132250", "INCLINATION": "97.4659", "RA_OF_ASC_NODE": "250.4951", "ARG_OF_PERICENTER": "3.5118", "MEAN_ANOMALY": "356.6308", "EPHEMERIS_TYPE": "0", "CLASSIFICATION_TYPE": "U", "NORAD_CAT_ID": "44878", "ELEMENT_SET_NO": "999", "REV_AT_EPOCH": "1178", "BSTAR": "0.00000000000000", "MEAN_MOTION_DOT": "-0.00000066", "MEAN_MOTION_DDOT": "0.0000000000000", "SEMIMAJOR_AXIS": "6898.241", "PERIOD": "95.031", "APOAPSIS": "529.229", "PERIAPSIS": "510.983", "OBJECT_TYPE": "PAYLOAD", "RCS_SIZE": "SMALL", "COUNTRY_CODE": "ESA", "LAUNCH_DATE": "2019-12-18", "SITE": "FRGUI", "DECAY_DATE": null, "FILE": "2713646", "GP_ID": "150030785", "TLE_LINE0": "0 OPS-SAT", "TLE_LINE1": "1 44878U 19092F   20065.43570353 -.00000066  00000-0  00000+0 0  9997", "TLE_LINE2": "2 44878  97.4659 250.4951 0013225   3.5118 356.6308 15.15287938 11787"}, {"CCSDS_OMM_VERS": "3.0", "COMMENT": "GENERATED VIA SPACE-TRACK.ORG API", "CREATION_DATE": "2020-03-06T03:41:12", "ORIGINATOR": "18 SPCS", "OBJECT_NAME": "OPS-SAT", "OBJECT_ID": "2019-092F", "CENTER_NAME": "EARTH", "REF_FRAME": "TEME", "TIME_SYSTEM": "UTC", "MEAN_ELEMENT_THEORY": "SGP4", "EPOCH": "2020-03-05T15:12:41.126976", "MEAN_MOTION": "15.15288927", "ECCENTRICITY": "0.00137830", "INCLINATION": "97.4672", "RA_OF_ASC_NODE": "250.6891", "ARG_OF_PERICENTER": "2.9317", "MEAN_ANOMALY": "357.2023", "EPHEMERIS_TYPE": "0", "CLASSIFICATION_TYPE": "U", "NORAD_CAT_ID": "44878", "ELEMENT_SET_NO": "999", "REV_AT_EPOCH": "1181", "BSTAR": "0.00000000000000", "MEAN_MOTION_DOT": "-0.00000066", "MEAN_MOTION_DDOT": "0.0000000000000", "SEMIMAJOR_AXIS": "6898.238", "PERIOD": "95.031", "APOAPSIS": "529.611", "PERIAPSIS": "510.595", "OBJECT_TYPE": "PAYLOAD", "RCS_SIZE": "SMALL", "COUNTRY_CODE": "ESA", "LAUNCH_DATE": "2019-12-18", "SITE": "FRGUI", "DECAY_DATE": null, "FILE": "2713994", "GP_ID": "150077231", "TLE_LINE0": "0 OPS-SAT", "TLE_LINE1": "1 44878U 19092F   20065.63380934 -.00000066 +00000-0 +00000-0 0  9994", "TLE_LINE2": "2 44878 097.4672 250.6891 0013783 002.9317 357.2023 15.15288927011814"}, {"CCSDS_OMM_VERS": "3.0", "COMMENT": "GENERATED VIA SPACE-TRACK.ORG API", "CREATION_DATE": "2020-03-06T17:00:02", "ORIGINATOR": "18 SPCS", "OBJECT_NAME": "OPS-SAT", "OBJECT_ID": "2019-092F", "CENTER_NAME": "EARTH", "REF_FRAME": "TEME", "TIME_SYSTEM": "UTC", "MEAN_ELEMENT_THEORY": "SGP4", "EPOCH": "2020-03-06T10:13:46.927776", "MEAN_MOTION": "15.15290307", "ECCENTRICITY": "0.00136250", "INCLINATION": "97.4671", "RA_OF_ASC_NODE": "251.4684", "ARG_OF_PERICENTER": "358.6020", "MEAN_ANOMALY": "1.5262", "EPHEMERIS_TYPE": "0", "CLASSIFICATION_TYPE": "U", "NORAD_CAT_ID": "44878", "ELEMENT_SET_NO": "999", "REV_AT_EPOCH": "1193", "BSTAR": "0.00000000000000", "MEAN_MOTION_DOT": "-0.00000066", "MEAN_MOTION_DDOT": "0.0000000000000", "SEMIMAJOR_AXIS": "6898.234", "PERIOD": "95.031", "APOAPSIS": "529.498", "PERIAPSIS": "510.700", "OBJECT_TYPE": "PAYLOAD", "RCS_SIZE": "SMALL", "COUNTRY_CODE": "ESA", "LAUNCH_DATE": "2019-12-18", "SITE": "FRGUI", "DECAY_DATE": null, "FILE": "2714520", "GP_ID": "150110009", "TLE_LINE0": "0 OPS-SAT", "TLE_LINE1": "1 44878U 19092F   20066.42623759 -.00000066 +00000-0 +00000-0 0  9997", "TLE_LINE2": "2 44878 097.4671 251.4684 0013625 358.6020 001.5262 15.15290307011931"}, {"CCSDS_OMM_VERS": "3.0", "COMMENT": "GENERATED VIA SPACE-TRACK.ORG API", "CREATION_DATE": "2020-03-06T22:16:13", "ORIGINATOR": "18 SPCS", "OBJECT_NAME": "OPS-SAT", "OBJECT_ID": "2019-092F", "CENTER_NAME": "EARTH", "REF_FRAME": "TEME", "TIME_SYSTEM": "UTC", "MEAN_ELEMENT_THEORY": "SGP4", "EPOCH": "2020-03-06T14:59:03.261984", "MEAN_MOTION": "15.15291688", "ECCENTRICITY": "0.00139960", "INCLINATION": "97.4674", "RA_OF_ASC_NODE": "251.6625", "ARG_OF_PERICENTER": "358.4500", "MEAN_ANOMALY": "1.6746", "EPHEMERIS_TYPE": "0", "CLASSIFICATION_TYPE": "U", "NORAD_CAT_ID": "44878", "ELEMENT_SET_NO": "999", "REV_AT_EPOCH": "1196", "BSTAR": "0.00000000000000", "MEAN_MOTION_DOT": "-0.00000066", "MEAN_MOTION_DDOT": "0.0000000000000", "SEMIMAJOR_AXIS": "6898.230", "PERIOD": "95.031", "APOAPSIS": "529.749", "PERIAPSIS": "510.440", "OBJECT_TYPE": "PAYLOAD", "RCS_SIZE": "SMALL", "COUNTRY_CODE": "ESA", "LAUNCH_DATE": "2019-12-18", "SITE": "FRGUI", "DECAY_DATE": null, "FILE": "2714543", "GP_ID": "150110582", "TLE_LINE0": "0 OPS-SAT", "TLE_LINE1": "1 44878U 19092F   20066.62434331 -.00000066  00000-0  00000+0 0  9994", "TLE_LINE2": "2 44878  97.4674 251.6625 0013996 358.4500   1.6746 15.15291688 11967"}, {"CCSDS_OMM_VERS": "3.0", "COMMENT": "GENERATED VIA SPACE-TRACK.ORG API", "CREATION_DATE": "2020-03-07T16:38:14", "ORIGINATOR": "18 SPCS", "OBJECT_NAME": "OPS-SAT", "OBJECT_ID": "2019-092F", "CENTER_NAME": "EARTH", "REF_FRAME": "TEME", "TIME_SYSTEM": "UTC", "MEAN_ELEMENT_THEORY": "SGP4", "EPOCH": "2020-03-07T10:00:08.972928", "MEAN_MOTION": "15.15292734", "ECCENTRICITY": "0.00139580", "INCLINATION": "97.4680", "RA_OF_ASC_NODE": "252.4407", "ARG_OF_PERICENTER": "356.4451", "MEAN_ANOMALY": "3.6727", "EPHEMERIS_TYPE": "0", "CLASSIFICATION_TYPE": "U", "NORAD_CAT_ID": "44878", "ELEMENT_SET_NO": "999", "REV_AT_EPOCH": "1208", "BSTAR": "0.00000000000000", "MEAN_MOTION_DOT": "-0.00000066", "MEAN_MOTION_DDOT": "0.0000000000000", "SEMIMAJOR_AXIS": "6898.226", "PERIOD": "95.031", "APOAPSIS": "529.720", "PERIAPSIS": "510.463", "OBJECT_TYPE": "PAYLOAD", "RCS_SIZE": "SMALL", "COUNTRY_CODE": "ESA", "LAUNCH_DATE": "2019-12-18", "SITE": "FRGUI", "DECAY_DATE": null, "FILE": "2714951", "GP_ID": "150178877", "TLE_LINE0": "0 OPS-SAT", "TLE_LINE1": "1 44878U 19092F   20067.41677052 -.00000066 +00000-0 +00000-0 0  9992", "TLE_LINE2": "2 44878 097.4680 252.4407 0013958 356.4451 003.6727 15.15292734012080"}, {"CCSDS_OMM_VERS": "3.0", "COMMENT": "GENERATED VIA SPACE-TRACK.ORG API", "CREATION_DATE": "2020-03-08T04:16:40", "ORIGINATOR": "18 SPCS", "OBJECT_NAME": "OPS-SAT", "OBJECT_ID": "2019-092F", "CENTER_NAME": "EARTH", "REF_FRAME": "TEME", "TIME_SYSTEM": "UTC", "MEAN_ELEMENT_THEORY": "SGP4", "EPOCH": "2020-03-07T14:45:25.347744", "MEAN_MOTION": "15.15293643", "ECCENTRICITY": "0.00138890", "INCLINATION": "97.4678", "RA_OF_ASC_NODE": "252.6353", "ARG_OF_PERICENTER": "356.0331", "MEAN_ANOMALY": "4.0859", "EPHEMERIS_TYPE": "0", "CLASSIFICATION_TYPE": "U", "NORAD_CAT_ID": "44878", "ELEMENT_SET_NO": "999", "REV_AT_EPOCH": "1211", "BSTAR": "0.00000000000000", "MEAN_MOTION_DOT": "-0.00000066", "MEAN_MOTION_DDOT": "0.0000000000000", "SEMIMAJOR_AXIS": "6898.224", "PERIOD": "95.031", "APOAPSIS": "529.670", "PERIAPSIS": "510.508", "OBJECT_TYPE": "PAYLOAD", "RCS_SIZE": "SMALL", "COUNTRY_CODE": "ESA", "LAUNCH_DATE": "2019-12-18", "SITE": "FRGUI", "DECAY_DATE": null, "FILE": "2715183", "GP_ID": "150203295", "TLE_LINE0": "0 OPS-SAT", "TLE_LINE1": "1 44878U 19092F   20067.61487671 -.00000066 +00000-0 +00000-0 0  9990", "TLE_LINE2": "2 44878 097.4678 252.6353 0013889 356.0331 004.0859 15.15293643012110"}, {"CCSDS_OMM_VERS": "3.0", "COMMENT": "GENERATED VIA SPACE-TRACK.ORG API", "CREATION_DATE": "2020-03-08T06:26:13", "ORIGINATOR": "18 SPCS", "OBJECT_NAME": "OPS-SAT", "OBJECT_ID": "2019-092F", "CENTER_NAME": "EARTH", "REF_FRAME": "TEME", "TIME_SYSTEM": "UTC", "MEAN_ELEMENT_THEORY": "SGP4", "EPOCH": "2020-03-08T01:51:03.596544", "MEAN_MOTION": "15.15293693", "ECCENTRICITY": "0.00139030", "INCLINATION": "97.4676", "RA_OF_ASC_NODE": "253.0894", "ARG_OF_PERICENTER": "354.4692", "MEAN_ANOMALY": "5.6387", "EPHEMERIS_TYPE": "0", "CLASSIFICATION_TYPE": "U", "NORAD_CAT_ID": "44878", "ELEMENT_SET_NO": "999", "REV_AT_EPOCH": "1218", "BSTAR": "0.00000000000000", "MEAN_MOTION_DOT": "-0.00000066", "MEAN_MOTION_DDOT": "0.0000000000000", "SEMIMAJOR_AXIS": "6898.224", "PERIOD": "95.031", "APOAPSIS": "529.679", "PERIAPSIS": "510.498", "OBJECT_TYPE": "PAYLOAD", "RCS_SIZE": "SMALL", "COUNTRY_CODE": "ESA", "LAUNCH_DATE": "2019-12-18", "SITE": "FRGUI", "DECAY_DATE": null, "FILE": "2715199", "GP_ID": "150223743", "TLE_LINE0": "0 OPS-SAT", "TLE_LINE1": "1 44878U 19092F   20068.07712496 -.00000066  00000-0  00000+0 0  9996", "TLE_LINE2": "2 44878  97.4676 253.0894 0013903 354.4692   5.6387 15.15293693 12187"}]